[{"OBJECT_NAME":"JILIN-1 KUANFU-01B","OBJECT_ID":"2021-061A","EPOCH":"2026-03-09T22:54:34.499808","MEAN_MOTION":15.09454544,"ECCENTRICITY":0.00089006,"INCLINATION":97.5272,"RA_OF_ASC_NODE":146.9765,"ARG_OF_PERICENTER":57.5197,"MEAN_ANOMALY":302.6891,"EPHEMERIS_TYPE":0,"CLASSIFICATION_TYPE":"U","NORAD_CAT_ID":49003,"ELEMENT_SET_NO":999,"REV_AT_EPOCH":25837,"BSTAR":0.00023291265,"MEAN_MOTION_DOT":3.668e-5,"MEAN_MOTION_DDOT":0},{"OBJECT_NAME":"STARLINK-4759","OBJECT_ID":"2022-114M","EPOCH":"2026-03-09T23:19:28.142400","MEAN_MOTION":15.08830951,"ECCENTRICITY":0.00013974,"INCLINATION":53.2161,"RA_OF_ASC_NODE":302.8796,"ARG_OF_PERICENTER":95.186,"MEAN_ANOMALY":264.9291,"EPHEMERIS_TYPE":0,"CLASSIFICATION_TYPE":"U","NORAD_CAT_ID":53829,"ELEMENT_SET_NO":999,"REV_AT_EPOCH":19287,"BSTAR":0.00059462996,"MEAN_MOTION_DOT":9.186e-5,"MEAN_MOTION_DDOT":0}]
